{
    "links": {
        "self": "http://www.neowsapp.com/rest/v1/neo/54005657?api_key=iIulBulltgU6a56xZRHN4H3l9WmuAYTsLGpBGhQ2"
    },
    "id": "54005657",
    "neo_reference_id": "54005657",
    "name": "(2020 DM3)",
    "designation": "2020 DM3",
    "nasa_jpl_url": "http://ssd.jpl.nasa.gov/sbdb.cgi?sstr=54005657",
    "absolute_magnitude_h": 26.166,
    "estimated_diameter": {
        "kilometers": {
            "estimated_diameter_min": 0.0155365639,
            "estimated_diameter_max": 0.0347408131
        },
        "meters": {
            "estimated_diameter_min": 15.5365639367,
            "estimated_diameter_max": 34.7408130993
        },
        "miles": {
            "estimated_diameter_min": 0.0096539703,
            "estimated_diameter_max": 0.0215869338
        },
        "feet": {
            "estimated_diameter_min": 50.9729804262,
            "estimated_diameter_max": 113.9790492488
        }
    },
    "is_potentially_hazardous_asteroid": false,
    "close_approach_data": [
        {
            "close_approach_date": "1952-07-02",
            "close_approach_date_full": "1952-Jul-02 10:20",
            "epoch_date_close_approach": -552231600000,
            "relative_velocity": {
                "kilometers_per_second": "8.7359354279",
                "kilometers_per_hour": "31449.3675405001",
                "miles_per_hour": "19541.4139587068"
            },
            "miss_distance": {
                "astronomical": "1.4540511735",
                "lunar": "565.6259064915",
                "kilometers": "217522958.426600445",
                "miles": "135162498.797938341"
            },
            "orbiting_body": "Juptr"
        },
        {
            "close_approach_date": "2020-02-29",
            "close_approach_date_full": "2020-Feb-29 10:17",
            "epoch_date_close_approach": 1582971420000,
            "relative_velocity": {
                "kilometers_per_second": "15.8001785563",
                "kilometers_per_hour": "56880.642802649",
                "miles_per_hour": "35343.4194125682"
            },
            "miss_distance": {
                "astronomical": "0.0081492582",
                "lunar": "3.1700614398",
                "kilometers": "1219111.668800034",
                "miles": "757520.8642831092"
            },
            "orbiting_body": "Earth"
        },
        {
            "close_approach_date": "2020-02-29",
            "close_approach_date_full": "2020-Feb-29 11:27",
            "epoch_date_close_approach": 1582975620000,
            "relative_velocity": {
                "kilometers_per_second": "16.7599026816",
                "kilometers_per_hour": "60335.6496536588",
                "miles_per_hour": "37490.2263084082"
            },
            "miss_distance": {
                "astronomical": "0.0079611667",
                "lunar": "3.0968938463",
                "kilometers": "1190973.581034929",
                "miles": "740036.6672988602"
            },
            "orbiting_body": "Moon"
        },
        {
            "close_approach_date": "2020-06-23",
            "close_approach_date_full": "2020-Jun-23 12:14",
            "epoch_date_close_approach": 1592914440000,
            "relative_velocity": {
                "kilometers_per_second": "20.2359923694",
                "kilometers_per_hour": "72849.572529853",
                "miles_per_hour": "45265.8913311189"
            },
            "miss_distance": {
                "astronomical": "0.0973615983",
                "lunar": "37.8736617387",
                "kilometers": "14565087.725475621",
                "miles": "9050325.8434247298"
            },
            "orbiting_body": "Mars"
        }
    ],
    "orbital_data": {
        "orbit_id": "4",
        "orbit_determination_date": "2020-03-17 01:09:54",
        "first_observation_date": "2020-02-26",
        "last_observation_date": "2020-02-29",
        "data_arc_in_days": 3,
        "observations_used": 61,
        "orbit_uncertainty": "7",
        "minimum_orbit_intersection": ".00785385",
        "jupiter_tisserand_invariant": "3.056",
        "epoch_osculation": "2459000.5",
        "eccentricity": ".6806320133933179",
        "semi_major_axis": "2.559373316682681",
        "inclination": "5.364811630444223",
        "ascending_node_longitude": "335.0614350855646",
        "orbital_period": "1495.542928195332",
        "perihelion_distance": ".8173819031238141",
        "perihelion_argument": "240.3997065918247",
        "aphelion_distance": "4.301364730241549",
        "perihelion_time": "2458945.685160131843",
        "mean_anomaly": "13.1947682547291",
        "mean_motion": ".2407152567893261",
        "equinox": "J2000",
        "orbit_class": {
            "orbit_class_type": "APO",
            "orbit_class_description": "Near-Earth asteroid orbits which cross the Earth’s orbit similar to that of 1862 Apollo",
            "orbit_class_range": "a (semi-major axis) > 1.0 AU; q (perihelion) < 1.017 AU"
        }
    },
    "is_sentry_object": false
}